{"type": "Feature", "properties": {"name": "Calle de Bailén", "source": "OpenStreetMap (via Nominatim), real way segments stitched + buffered ~9m"}, "geometry": {"type": "Polygon", "coordinates": [[[-3.7128975731552094, 40.42047377337271], [-3.713012408824812, 40.42078561977144], [-3.7128728860917017, 40.421041293457336], [-3.7129837829236423, 40.42108386328565], [-3.7129854231096315, 40.42125355950282], [-3.7129957185042533, 40.42134565134305], [-3.713020443499471, 40.42144701436695], [-3.713061621269463, 40.4215598151881], [-3.7129733130011413, 40.42203326794961], [-3.712989020404941, 40.42208703880385], [-3.7128311795950593, 40.422113761193486], [-3.712809086998859, 40.4220381320503], [-3.7128967787305363, 40.42156798481165], [-3.7128627565005283, 40.421474785630195], [-3.7128352814957455, 40.42136214865594], [-3.7128237768903687, 40.42125924049704], [-3.712822817076356, 40.421159936692845], [-3.7126659139082983, 40.42109970652997], [-3.712841591175187, 40.42077778022831], [-3.712693426844791, 40.42037542659132], [-3.7127621682920897, 40.420366491387924], [-3.7127342810261714, 40.4202160624054], [-3.712774776603927, 40.419568538106525], [-3.7132454665497896, 40.41651937260971], [-3.7132976651356078, 40.41635412914761], [-3.713355426652627, 40.41622931933316], [-3.713389917015773, 40.416150709001876], [-3.7132470973498157, 40.41608215151364], [-3.7134572596254976, 40.41566830197685], [-3.7134615758784326, 40.41520960195642], [-3.713539023349465, 40.41450685640436], [-3.7136696124154507, 40.413271959708666], [-3.713830787584549, 40.41328184029096], [-3.7137001766505344, 40.41451694359526], [-3.713623224121567, 40.415215198043455], [-3.713618740374502, 40.41569169802111], [-3.713445902650184, 40.41603204847702], [-3.7135834829842254, 40.41609809098784], [-3.7135083733473717, 40.416269280660885], [-3.713452934864393, 40.41638907084784], [-3.7134049334502097, 40.416541027388526], [-3.7129360233960726, 40.4195786618931], [-3.712896518973828, 40.420210337594455], [-3.71294423170791, 40.420467708574016], [-3.7128975731552094, 40.42047377337271]]]}}