{
  "type": "Feature",
  "properties": {
    "osm_id": 319973673,
    "osm_type": "way",
    "landuse": "farmland",
    "name": "Parcela de palma aceitera - Sabah, Borneo (Malasia)",
    "client_name": "Plantación Sabah (ejemplo)",
    "commodity": "aceite_palma",
    "source": "OpenStreetMap (Overpass API), landuse=farmland, produce=palm_oil, genus=Elaeis"
  },
  "geometry": {
    "type": "Polygon",
    "coordinates": [
      [
        [117.9030580, 5.9391349],
        [117.9031545, 5.9394337],
        [117.9031653, 5.9395778],
        [117.9034753, 5.9403517],
        [117.9030472, 5.9405275],
        [117.9026610, 5.9406449],
        [117.9024142, 5.9407516],
        [117.9021782, 5.9407943],
        [117.9015023, 5.9410771],
        [117.9013950, 5.9400206],
        [117.9012276, 5.9399515],
        [117.9011858, 5.9397165],
        [117.9013038, 5.9396151],
        [117.9012394, 5.9395191],
        [117.9011740, 5.9393326],
        [117.9011804, 5.9392256],
        [117.9017598, 5.9391883],
        [117.9022630, 5.9391779],
        [117.9027458, 5.9391725],
        [117.9028638, 5.9391138],
        [117.9030580, 5.9391349]
      ]
    ]
  }
}
