{
  "type": "Feature",
  "properties": {
    "osm_id": 616725020,
    "osm_type": "way",
    "landuse": "farmland",
    "name": "Parcela cacao - Soubré, Côte d'Ivoire",
    "client_name": "Cooperativa Soubré (ejemplo)",
    "commodity": "cocoa",
    "source": "OpenStreetMap (Overpass API), landuse=farmland"
  },
  "geometry": {
    "type": "Polygon",
    "coordinates": [
      [
        [
          -6.6037247,
          5.7652304
        ],
        [
          -6.6034752,
          5.7652624
        ],
        [
          -6.6034082,
          5.7652491
        ],
        [
          -6.6034108,
          5.7654172
        ],
        [
          -6.603325,
          5.7654252
        ],
        [
          -6.6033036,
          5.7652864
        ],
        [
          -6.6031936,
          5.7652944
        ],
        [
          -6.6031909,
          5.7652064
        ],
        [
          -6.6032204,
          5.7651423
        ],
        [
          -6.6032848,
          5.7651503
        ],
        [
          -6.6033277,
          5.7650863
        ],
        [
          -6.6033626,
          5.7650116
        ],
        [
          -6.6036978,
          5.7650142
        ],
        [
          -6.6038454,
          5.7649102
        ],
        [
          -6.6038212,
          5.7647047
        ],
        [
          -6.6036657,
          5.7647527
        ],
        [
          -6.6035959,
          5.7646967
        ],
        [
          -6.6035932,
          5.7646246
        ],
        [
          -6.6034886,
          5.7645499
        ],
        [
          -6.6034564,
          5.7644618
        ],
        [
          -6.6034323,
          5.7643551
        ],
        [
          -6.6033787,
          5.7641496
        ],
        [
          -6.6033331,
          5.7640402
        ],
        [
          -6.6032714,
          5.7640108
        ],
        [
          -6.6032311,
          5.7639041
        ],
        [
          -6.6032419,
          5.7638267
        ],
        [
          -6.6033921,
          5.7638107
        ],
        [
          -6.6034082,
          5.7639281
        ],
        [
          -6.6034243,
          5.7639948
        ],
        [
          -6.6035825,
          5.7639788
        ],
        [
          -6.6037005,
          5.7639388
        ],
        [
          -6.603722,
          5.7639094
        ],
        [
          -6.603663,
          5.7637867
        ],
        [
          -6.6036871,
          5.7636586
        ],
        [
          -6.6037193,
          5.7636239
        ],
        [
          -6.6037971,
          5.7636239
        ],
        [
          -6.6038722,
          5.7636319
        ],
        [
          -6.6039312,
          5.7636719
        ],
        [
          -6.6038749,
          5.7635918
        ],
        [
          -6.6038212,
          5.7635385
        ],
        [
          -6.6037595,
          5.7634864
        ],
        [
          -6.6037126,
          5.7634344
        ],
        [
          -6.6036777,
          5.7633877
        ],
        [
          -6.6036442,
          5.7633517
        ],
        [
          -6.6035503,
          5.7633156
        ],
        [
          -6.6035423,
          5.7633397
        ],
        [
          -6.6035691,
          5.7634638
        ],
        [
          -6.6035664,
          5.7636052
        ],
        [
          -6.6035651,
          5.7636372
        ],
        [
          -6.6034229,
          5.7636385
        ],
        [
          -6.6033237,
          5.7636652
        ],
        [
          -6.6033089,
          5.7635024
        ],
        [
          -6.6033411,
          5.7634704
        ],
        [
          -6.603384,
          5.7633997
        ],
        [
          -6.6033867,
          5.763325
        ],
        [
          -6.6033116,
          5.7632916
        ],
        [
          -6.60327,
          5.7632943
        ],
        [
          -6.6032472,
          5.7631355
        ],
        [
          -6.6030487,
          5.7631462
        ],
        [
          -6.603038,
          5.7627592
        ],
        [
          -6.6043791,
          5.7626685
        ],
        [
          -6.6043738,
          5.762906
        ],
        [
          -6.6042665,
          5.762914
        ],
        [
          -6.6043067,
          5.7630981
        ],
        [
          -6.6041458,
          5.7631008
        ],
        [
          -6.6041082,
          5.7631702
        ],
        [
          -6.6040868,
          5.7633437
        ],
        [
          -6.6040814,
          5.7634798
        ],
        [
          -6.6040948,
          5.7636692
        ],
        [
          -6.6041069,
          5.7637466
        ],
        [
          -6.6041257,
          5.763836
        ],
        [
          -6.6042034,
          5.7638787
        ],
        [
          -6.6042745,
          5.7639388
        ],
        [
          -6.6043228,
          5.7640042
        ],
        [
          -6.6043818,
          5.7640722
        ],
        [
          -6.6044556,
          5.7641322
        ],
        [
          -6.6045919,
          5.7642928
        ],
        [
          -6.6045313,
          5.7643224
        ],
        [
          -6.6044777,
          5.7643324
        ],
        [
          -6.6043335,
          5.764251
        ],
        [
          -6.6042182,
          5.7642563
        ],
        [
          -6.6041189,
          5.7643097
        ],
        [
          -6.6040358,
          5.7643604
        ],
        [
          -6.6039366,
          5.7642937
        ],
        [
          -6.6038507,
          5.764259
        ],
        [
          -6.6038266,
          5.7641763
        ],
        [
          -6.6037381,
          5.764195
        ],
        [
          -6.6036952,
          5.7643631
        ],
        [
          -6.6036496,
          5.7644965
        ],
        [
          -6.6037542,
          5.7646193
        ],
        [
          -6.6038722,
          5.7646433
        ],
        [
          -6.6039714,
          5.7646593
        ],
        [
          -6.6040599,
          5.7648301
        ],
        [
          -6.604076,
          5.7649849
        ],
        [
          -6.6042343,
          5.7649315
        ],
        [
          -6.604363,
          5.7649529
        ],
        [
          -6.6044945,
          5.7649982
        ],
        [
          -6.6045401,
          5.7650169
        ],
        [
          -6.604473,
          5.7652758
        ],
        [
          -6.6043389,
          5.7652811
        ],
        [
          -6.6041136,
          5.7652437
        ],
        [
          -6.6039768,
          5.765185
        ],
        [
          -6.6038212,
          5.7651637
        ],
        [
          -6.6037247,
          5.7652304
        ]
      ]
    ]
  }
}