{"type": "FeatureCollection", "name": "soubre_farmland_cotedivoire_osm", "features": [{"type": "Feature", "properties": {"osm_id": 616243620, "osm_type": "way", "landuse": "farmland"}, "geometry": {"type": "Polygon", "coordinates": [[[-6.6118732, 5.8083418], [-6.6118848, 5.8085939], [-6.611479, 5.8086124], [-6.6114674, 5.8083603], [-6.6118732, 5.8083418]]]}}, {"type": "Feature", "properties": {"osm_id": 616249919, "osm_type": "way", "landuse": "farmland"}, "geometry": {"type": "Polygon", "coordinates": [[[-6.6089121, 5.7781411], [-6.6089952, 5.7782933], [-6.6089925, 5.7783867], [-6.6089872, 5.7784427], [-6.6090328, 5.7785601], [-6.609022, 5.7785895], [-6.6089442, 5.7786081], [-6.6088396, 5.7785761], [-6.608786, 5.7785521], [-6.6086599, 5.7785708], [-6.6085607, 5.7785761], [-6.6084722, 5.7785334], [-6.6083837, 5.7784027], [-6.6083622, 5.7783386], [-6.608322, 5.7782052], [-6.6083166, 5.7781225], [-6.60833, 5.7780718], [-6.6084266, 5.7781331], [-6.6084963, 5.7781385], [-6.6085392, 5.7781038], [-6.6085821, 5.7780851], [-6.6086867, 5.7780691], [-6.6087672, 5.7780958], [-6.6088048, 5.7781358], [-6.6089121, 5.7781411]]]}}, {"type": "Feature", "properties": {"osm_id": 616251640, "osm_type": "way", "landuse": "farmland"}, "geometry": {"type": "Polygon", "coordinates": [[[-6.6068854, 5.7691135], [-6.6067042, 5.7690941], [-6.6067209, 5.7689395], [-6.6069022, 5.7689589], [-6.6068854, 5.7691135]]]}}, {"type": "Feature", "properties": {"osm_id": 616251641, "osm_type": "way", "landuse": "farmland"}, "geometry": {"type": "Polygon", "coordinates": [[[-6.6072035, 5.7654305], [-6.6070748, 5.7656814], [-6.6068924, 5.7659403], [-6.6068065, 5.7662338], [-6.6065973, 5.7668903], [-6.6059241, 5.7668262], [-6.6059911, 5.7672986], [-6.6065329, 5.7672852], [-6.6065598, 5.7675521], [-6.6067797, 5.7677389], [-6.6067234, 5.7682406], [-6.606659, 5.7688277], [-6.6066027, 5.7690892], [-6.6064176, 5.7691133], [-6.606372, 5.7693401], [-6.6058651, 5.7693481], [-6.6058946, 5.7690599], [-6.6056746, 5.7690305], [-6.605562, 5.7690306], [-6.6055727, 5.7682646], [-6.6053367, 5.7683394], [-6.6052723, 5.7680992], [-6.6055647, 5.7680458], [-6.60557, 5.7678723], [-6.6057336, 5.7678563], [-6.6056854, 5.7676642], [-6.6054547, 5.7676962], [-6.6054708, 5.7678617], [-6.605165, 5.7679417], [-6.6051006, 5.7678136], [-6.6050926, 5.7676962], [-6.6050577, 5.7676108], [-6.6050094, 5.7675868], [-6.6050255, 5.7674], [-6.6050792, 5.7671785], [-6.6052106, 5.7671598], [-6.6052911, 5.7672105], [-6.6053206, 5.767392], [-6.6053286, 5.7675281], [-6.6058168, 5.7675041], [-6.6058382, 5.7672079], [-6.605621, 5.7671545], [-6.6056076, 5.766965], [-6.6054332, 5.7669383], [-6.6053957, 5.7666581], [-6.6055888, 5.7666368], [-6.605629, 5.7668262], [-6.6057926, 5.7667755], [-6.6058302, 5.7662792], [-6.6051972, 5.7662658], [-6.6051275, 5.7659883], [-6.6044569, 5.7660897], [-6.6044569, 5.7658389], [-6.6043443, 5.7658335], [-6.6044247, 5.7656147], [-6.6046768, 5.7655987], [-6.6047198, 5.7655293], [-6.604591, 5.7655026], [-6.6046232, 5.7654412], [-6.6046983, 5.7654065], [-6.6046232, 5.7653585], [-6.6046728, 5.7653185], [-6.6046581, 5.7652451], [-6.6046125, 5.7652251], [-6.6045736, 5.7652238], [-6.6047452, 5.7646393], [-6.6047546, 5.7645112], [-6.6047345, 5.7644498], [-6.6046876, 5.7643911], [-6.6046728, 5.7643311], [-6.6047077, 5.7642417], [-6.6047815, 5.7641523], [-6.6048123, 5.7640682], [-6.6048297, 5.7640028], [-6.6048458, 5.7639628], [-6.6048995, 5.7639174], [-6.6049719, 5.7638721], [-6.605055, 5.7638294], [-6.6051033, 5.7637706], [-6.6051328, 5.7636879], [-6.6052187, 5.7636159], [-6.6053313, 5.7635999], [-6.6054413, 5.7636292], [-6.6056049, 5.7636479], [-6.60579, 5.7636532], [-6.6058812, 5.7636159], [-6.6059214, 5.7635385], [-6.6058731, 5.7628767], [-6.6071338, 5.7628233], [-6.6071338, 5.7631382], [-6.6071445, 5.7634317], [-6.607123, 5.7636079], [-6.6072357, 5.7637733], [-6.6072357, 5.7638694], [-6.6073054, 5.7639868], [-6.6073564, 5.7641042], [-6.6073456, 5.7641923], [-6.6073269, 5.7642777], [-6.6073456, 5.7643951], [-6.6073349, 5.7644939], [-6.6073161, 5.764622], [-6.6073403, 5.7648354], [-6.607343, 5.7650703], [-6.6073054, 5.7652678], [-6.6072035, 5.7654305]]]}}, {"type": "Feature", "properties": {"osm_id": 616716430, "osm_type": "way", "landuse": "farmland"}, "geometry": {"type": "Polygon", "coordinates": [[[-6.6034615, 5.766325], [-6.6034681, 5.7665596], [-6.6029636, 5.7665738], [-6.602947, 5.7659905], [-6.6029444, 5.7658978], [-6.6030317, 5.7658953], [-6.6030339, 5.7659744], [-6.6031747, 5.7659704], [-6.6033655, 5.765965], [-6.6033597, 5.765763], [-6.6036267, 5.7657555], [-6.6036377, 5.7661412], [-6.6033992, 5.7661479], [-6.6034009, 5.7662054], [-6.6032217, 5.7662104], [-6.6032229, 5.7662535], [-6.6033471, 5.76625], [-6.6033494, 5.7663282], [-6.6034615, 5.766325]]]}}, {"type": "Feature", "properties": {"osm_id": 616716434, "osm_type": "way", "landuse": "farmland"}, "geometry": {"type": "Polygon", "coordinates": [[[-6.6030581, 5.767403], [-6.6030757, 5.7676244], [-6.6029627, 5.7676333], [-6.602954, 5.7675244], [-6.6029009, 5.7675286], [-6.6028919, 5.7674162], [-6.6030581, 5.767403]]]}}, {"type": "Feature", "properties": {"osm_id": 616716441, "osm_type": "way", "landuse": "farmland"}, "geometry": {"type": "Polygon", "coordinates": [[[-6.604701, 5.7689638], [-6.6047305, 5.7691773], [-6.6045548, 5.7691933], [-6.6044985, 5.7689478], [-6.6046044, 5.7689211], [-6.604701, 5.7689638]]]}}, {"type": "Feature", "properties": {"osm_id": 616725020, "osm_type": "way", "landuse": "farmland"}, "geometry": {"type": "Polygon", "coordinates": [[[-6.6037247, 5.7652304], [-6.6034752, 5.7652624], [-6.6034082, 5.7652491], [-6.6034108, 5.7654172], [-6.603325, 5.7654252], [-6.6033036, 5.7652864], [-6.6031936, 5.7652944], [-6.6031909, 5.7652064], [-6.6032204, 5.7651423], [-6.6032848, 5.7651503], [-6.6033277, 5.7650863], [-6.6033626, 5.7650116], [-6.6036978, 5.7650142], [-6.6038454, 5.7649102], [-6.6038212, 5.7647047], [-6.6036657, 5.7647527], [-6.6035959, 5.7646967], [-6.6035932, 5.7646246], [-6.6034886, 5.7645499], [-6.6034564, 5.7644618], [-6.6034323, 5.7643551], [-6.6033787, 5.7641496], [-6.6033331, 5.7640402], [-6.6032714, 5.7640108], [-6.6032311, 5.7639041], [-6.6032419, 5.7638267], [-6.6033921, 5.7638107], [-6.6034082, 5.7639281], [-6.6034243, 5.7639948], [-6.6035825, 5.7639788], [-6.6037005, 5.7639388], [-6.603722, 5.7639094], [-6.603663, 5.7637867], [-6.6036871, 5.7636586], [-6.6037193, 5.7636239], [-6.6037971, 5.7636239], [-6.6038722, 5.7636319], [-6.6039312, 5.7636719], [-6.6038749, 5.7635918], [-6.6038212, 5.7635385], [-6.6037595, 5.7634864], [-6.6037126, 5.7634344], [-6.6036777, 5.7633877], [-6.6036442, 5.7633517], [-6.6035503, 5.7633156], [-6.6035423, 5.7633397], [-6.6035691, 5.7634638], [-6.6035664, 5.7636052], [-6.6035651, 5.7636372], [-6.6034229, 5.7636385], [-6.6033237, 5.7636652], [-6.6033089, 5.7635024], [-6.6033411, 5.7634704], [-6.603384, 5.7633997], [-6.6033867, 5.763325], [-6.6033116, 5.7632916], [-6.60327, 5.7632943], [-6.6032472, 5.7631355], [-6.6030487, 5.7631462], [-6.603038, 5.7627592], [-6.6043791, 5.7626685], [-6.6043738, 5.762906], [-6.6042665, 5.762914], [-6.6043067, 5.7630981], [-6.6041458, 5.7631008], [-6.6041082, 5.7631702], [-6.6040868, 5.7633437], [-6.6040814, 5.7634798], [-6.6040948, 5.7636692], [-6.6041069, 5.7637466], [-6.6041257, 5.763836], [-6.6042034, 5.7638787], [-6.6042745, 5.7639388], [-6.6043228, 5.7640042], [-6.6043818, 5.7640722], [-6.6044556, 5.7641322], [-6.6045919, 5.7642928], [-6.6045313, 5.7643224], [-6.6044777, 5.7643324], [-6.6043335, 5.764251], [-6.6042182, 5.7642563], [-6.6041189, 5.7643097], [-6.6040358, 5.7643604], [-6.6039366, 5.7642937], [-6.6038507, 5.764259], [-6.6038266, 5.7641763], [-6.6037381, 5.764195], [-6.6036952, 5.7643631], [-6.6036496, 5.7644965], [-6.6037542, 5.7646193], [-6.6038722, 5.7646433], [-6.6039714, 5.7646593], [-6.6040599, 5.7648301], [-6.604076, 5.7649849], [-6.6042343, 5.7649315], [-6.604363, 5.7649529], [-6.6044945, 5.7649982], [-6.6045401, 5.7650169], [-6.604473, 5.7652758], [-6.6043389, 5.7652811], [-6.6041136, 5.7652437], [-6.6039768, 5.765185], [-6.6038212, 5.7651637], [-6.6037247, 5.7652304]]]}}, {"type": "Feature", "properties": {"osm_id": 616725022, "osm_type": "way", "landuse": "farmland"}, "geometry": {"type": "Polygon", "coordinates": [[[-6.6039601, 5.7654308], [-6.6039717, 5.7655499], [-6.603732, 5.765573], [-6.6037204, 5.765454], [-6.6039601, 5.7654308]]]}}, {"type": "Feature", "properties": {"osm_id": 616739466, "osm_type": "way", "landuse": "farmland"}, "geometry": {"type": "Polygon", "coordinates": [[[-6.5757519, 5.7899181], [-6.5757801, 5.7899768], [-6.5757861, 5.7900082], [-6.5757754, 5.7900269], [-6.5757485, 5.7900456], [-6.5757351, 5.7900662], [-6.5756976, 5.7900689], [-6.5756607, 5.7900582], [-6.5756292, 5.7900396], [-6.5756144, 5.7900269], [-6.5756071, 5.7900082], [-6.5756057, 5.7899902], [-6.57565, 5.7899608], [-6.5756949, 5.7899275], [-6.5757519, 5.7899181]]]}}, {"type": "Feature", "properties": {"osm_id": 616744966, "osm_type": "way", "landuse": "farmland"}, "geometry": {"type": "Polygon", "coordinates": [[[-6.57496, 5.7905212], [-6.5749472, 5.7905352], [-6.5749137, 5.7905539], [-6.5748668, 5.7905619], [-6.5748507, 5.7905753], [-6.5748426, 5.7905979], [-6.5748601, 5.7906033], [-6.5749365, 5.7905953], [-6.5749955, 5.7906233], [-6.575021, 5.7906526], [-6.575072, 5.790666], [-6.5750948, 5.7907074], [-6.5751618, 5.7907447], [-6.5752369, 5.7908301], [-6.575253, 5.7908835], [-6.5753227, 5.7909075], [-6.5753764, 5.7908941], [-6.5753952, 5.7909208], [-6.575422, 5.7909689], [-6.5754783, 5.7909982], [-6.5755373, 5.7909956], [-6.5755668, 5.7909582], [-6.5755883, 5.7908808], [-6.5756366, 5.7908515], [-6.5756741, 5.7907821], [-6.5757465, 5.7907661], [-6.5758646, 5.7907687], [-6.5759866, 5.7907814], [-6.5760362, 5.7907814], [-6.5760972, 5.7908108], [-6.5761274, 5.7908048], [-6.576232, 5.7906807], [-6.5762816, 5.7905739], [-6.5763152, 5.7904939], [-6.576279, 5.7904432], [-6.5762374, 5.7904498], [-6.5762025, 5.7904298], [-6.5761435, 5.7904178], [-6.5760925, 5.7904191], [-6.5760201, 5.7904031], [-6.5759799, 5.7903798], [-6.5759584, 5.7903564], [-6.5759303, 5.7903518], [-6.5759423, 5.7903271], [-6.5759839, 5.7903298], [-6.5760195, 5.7903531], [-6.5760516, 5.7903718], [-6.5760865, 5.7903765], [-6.5761214, 5.7903698], [-6.5761629, 5.7903558], [-6.5762199, 5.7903504], [-6.5762736, 5.7903324], [-6.5763051, 5.7903204], [-6.5763246, 5.7903064], [-6.57634, 5.7902904], [-6.576399, 5.7902717], [-6.5764178, 5.7902617], [-6.5764372, 5.790239], [-6.5764513, 5.7902163], [-6.5764821, 5.7901943], [-6.5765351, 5.7901723], [-6.5765546, 5.7901516], [-6.576566, 5.7901216], [-6.5765599, 5.7901103], [-6.5765452, 5.7901069], [-6.5765264, 5.7901123], [-6.5764929, 5.7901109], [-6.5764587, 5.7901029], [-6.5764325, 5.7900963], [-6.5763997, 5.7901049], [-6.5763695, 5.7901109], [-6.57634, 5.7901183], [-6.5763044, 5.7901303], [-6.5762803, 5.7901443], [-6.5762568, 5.7901543], [-6.5762273, 5.7901536], [-6.5762099, 5.7901476], [-6.5761985, 5.7901263], [-6.5762065, 5.7901036], [-6.5762146, 5.7900856], [-6.5762146, 5.7900629], [-6.5761978, 5.7900436], [-6.5761636, 5.7900269], [-6.5761348, 5.7900155], [-6.5761167, 5.7899855], [-6.5760885, 5.7899528], [-6.5760577, 5.7899068], [-6.5760208, 5.7898427], [-6.5759859, 5.7898081], [-6.5759557, 5.7898034], [-6.5759041, 5.7898034], [-6.5758397, 5.7898087], [-6.5758076, 5.7898294], [-6.5757848, 5.7898514], [-6.5757707, 5.7898748], [-6.5757734, 5.7899028], [-6.5757861, 5.7899268], [-6.5758035, 5.7899575], [-6.5758156, 5.7899855], [-6.5758109, 5.7900089], [-6.5758035, 5.7900335], [-6.5757794, 5.7900622], [-6.5757559, 5.7900862], [-6.575717, 5.7900963], [-6.5756768, 5.7900943], [-6.5756366, 5.7900736], [-6.5756051, 5.7900436], [-6.5755829, 5.7900262], [-6.5755641, 5.7900289], [-6.57554, 5.7900416], [-6.5755226, 5.7900696], [-6.5755185, 5.7900936], [-6.5755139, 5.7901269], [-6.5755011, 5.790159], [-6.5754642, 5.7902117], [-6.5754414, 5.790245], [-6.5754166, 5.7902924], [-6.5753958, 5.7903137], [-6.5753704, 5.7903291], [-6.5753281, 5.7903318], [-6.5752936, 5.7903381], [-6.5752775, 5.7903564], [-6.5752731, 5.7903875], [-6.5752701, 5.7904151], [-6.5752885, 5.7904255], [-6.5752969, 5.7904345], [-6.5752973, 5.7904662], [-6.5752842, 5.7904899], [-6.5752755, 5.7904962], [-6.5752564, 5.7905129], [-6.5752406, 5.7905266], [-6.5752295, 5.7905279], [-6.5752084, 5.7905286], [-6.5751749, 5.7905272], [-6.575143, 5.7905196], [-6.5751055, 5.7904992], [-6.5750813, 5.7904578], [-6.5750773, 5.7904018], [-6.5750746, 5.7903591], [-6.5750532, 5.7903458], [-6.5750089, 5.7903471], [-6.5749861, 5.7903618], [-6.5749915, 5.7903925], [-6.5750076, 5.7904205], [-6.5750103, 5.7904512], [-6.5750056, 5.7904652], [-6.5749841, 5.7904892], [-6.57496, 5.7905212]]]}}, {"type": "Feature", "properties": {"osm_id": 616744976, "osm_type": "way", "landuse": "farmland"}, "geometry": {"type": "Polygon", "coordinates": [[[-6.5776831, 5.7886272], [-6.5777206, 5.7885365], [-6.5777609, 5.7884791], [-6.5778118, 5.7884858], [-6.5778306, 5.7884284], [-6.5778065, 5.7884017], [-6.5777542, 5.788363], [-6.5777569, 5.7883364], [-6.57773, 5.7882563], [-6.5777233, 5.7882163], [-6.5777354, 5.7881816], [-6.5777394, 5.7881456], [-6.5777877, 5.7880762], [-6.5777957, 5.7880148], [-6.5777904, 5.7879481], [-6.577785, 5.787888], [-6.5776482, 5.78788], [-6.5776925, 5.7875598], [-6.577671, 5.7874718], [-6.577726, 5.7873797], [-6.5778789, 5.7873317], [-6.5779969, 5.7873423], [-6.5780747, 5.7873557], [-6.578127, 5.7873156], [-6.5781525, 5.7872463], [-6.5781391, 5.7872276], [-6.5780787, 5.7872249], [-6.5780224, 5.7871942], [-6.5780076, 5.7871622], [-6.5779674, 5.7871355], [-6.5779004, 5.7871288], [-6.577832, 5.7871275], [-6.577781, 5.7871075], [-6.5777381, 5.7870928], [-6.5777019, 5.7871075], [-6.5776697, 5.7871502], [-6.5776254, 5.7872476], [-6.5775798, 5.787317], [-6.5775557, 5.7873317], [-6.5775369, 5.787317], [-6.5775342, 5.787273], [-6.5775463, 5.7872316], [-6.5775396, 5.7871849], [-6.5775557, 5.7871662], [-6.5775919, 5.7871769], [-6.5776308, 5.7871755], [-6.577659, 5.7871195], [-6.5776724, 5.7870822], [-6.5776667, 5.7870708], [-6.5776402, 5.7870618], [-6.5776264, 5.7870611], [-6.5775969, 5.7870571], [-6.5775755, 5.7870575], [-6.5775201, 5.7870685], [-6.577499, 5.7870701], [-6.57749, 5.7871102], [-6.5774846, 5.7871555], [-6.5774712, 5.7871796], [-6.5774229, 5.7872636], [-6.5773948, 5.787313], [-6.5774189, 5.7874184], [-6.5774256, 5.7874397], [-6.5774497, 5.7874557], [-6.5774471, 5.7874878], [-6.577431, 5.7875051], [-6.5773961, 5.7875078], [-6.5773787, 5.7874584], [-6.5773746, 5.7873597], [-6.5773384, 5.7873543], [-6.5772499, 5.7873023], [-6.5772057, 5.7873824], [-6.5772928, 5.7874931], [-6.5773143, 5.7875798], [-6.5773049, 5.7876692], [-6.5772633, 5.7877906], [-6.5772352, 5.7878627], [-6.577262, 5.7879641], [-6.5772861, 5.7880308], [-6.5772754, 5.7881536], [-6.5772298, 5.788343], [-6.5771835, 5.7885305], [-6.5772197, 5.7885458], [-6.5772613, 5.7885679], [-6.5773378, 5.7885719], [-6.5774591, 5.7885799], [-6.5774987, 5.7885832], [-6.5775543, 5.7885879], [-6.577667, 5.7886279], [-6.5776831, 5.7886272]]]}}, {"type": "Feature", "properties": {"osm_id": 616744977, "osm_type": "way", "landuse": "farmland"}, "geometry": {"type": "Polygon", "coordinates": [[[-6.5773398, 5.7886152], [-6.5772875, 5.7887607], [-6.5772003, 5.7889301], [-6.5769723, 5.7888274], [-6.576916, 5.788814], [-6.5767282, 5.789265], [-6.5766223, 5.7894411], [-6.5763648, 5.7893878], [-6.5763608, 5.7895065], [-6.5763929, 5.7895919], [-6.5764211, 5.7897213], [-6.5764426, 5.7898147], [-6.5764131, 5.7898481], [-6.5763353, 5.7898094], [-6.5762655, 5.7897427], [-6.5762267, 5.7896826], [-6.5762696, 5.7896079], [-6.5762669, 5.7894638], [-6.5761422, 5.7894251], [-6.5760624, 5.7893818], [-6.5760255, 5.7893958], [-6.5759844, 5.7894104], [-6.5759611, 5.7894196], [-6.5759251, 5.7894346], [-6.5759132, 5.7894426], [-6.5759045, 5.789456], [-6.5758936, 5.7894682], [-6.5758806, 5.789482], [-6.5758671, 5.7894878], [-6.5758518, 5.7895005], [-6.5758196, 5.7895038], [-6.5757895, 5.7895052], [-6.5757646, 5.7895072], [-6.5757405, 5.7895192], [-6.575717, 5.7895305], [-6.5756889, 5.7895392], [-6.5756755, 5.7895639], [-6.5756741, 5.7895939], [-6.5756734, 5.7896093], [-6.5756835, 5.789688], [-6.5757117, 5.789756], [-6.5757895, 5.7897747], [-6.5758713, 5.7897707], [-6.5759343, 5.7897614], [-6.5759866, 5.789772], [-6.5760201, 5.7898054], [-6.576053, 5.7898508], [-6.5760701, 5.7898834], [-6.5760959, 5.7899175], [-6.5761086, 5.7899475], [-6.5761261, 5.7899635], [-6.5761402, 5.7899788], [-6.5761656, 5.7899902], [-6.5761958, 5.7900075], [-6.5762166, 5.7900209], [-6.576232, 5.7900349], [-6.5762387, 5.7900609], [-6.5762374, 5.7900856], [-6.576234, 5.7900996], [-6.5762334, 5.7901183], [-6.5762434, 5.7901289], [-6.5762669, 5.7901256], [-6.5762863, 5.7901109], [-6.5763145, 5.7901016], [-6.5763453, 5.7900956], [-6.5763883, 5.7900842], [-6.5764258, 5.7900796], [-6.5764466, 5.7900742], [-6.5764761, 5.7900836], [-6.576511, 5.7900862], [-6.5765411, 5.7900836], [-6.5766075, 5.7900709], [-6.5766612, 5.7900682], [-6.5767007, 5.7900722], [-6.5767175, 5.7900936], [-6.576743, 5.7901063], [-6.5767772, 5.7901003], [-6.5768194, 5.7900569], [-6.5768784, 5.7900342], [-6.5769475, 5.7900242], [-6.5769924, 5.7899455], [-6.5770273, 5.7899055], [-6.5770876, 5.7899161], [-6.5771292, 5.7899161], [-6.5771668, 5.7898654], [-6.5772419, 5.78972], [-6.577266, 5.7896159], [-6.5773076, 5.7895492], [-6.5773827, 5.7895052], [-6.5774323, 5.7894638], [-6.577498, 5.7893878], [-6.5775986, 5.7893397], [-6.5777649, 5.7893331], [-6.5778548, 5.7893037], [-6.5779097, 5.7891916], [-6.5779138, 5.7891076], [-6.5778923, 5.7890742], [-6.5778306, 5.7890622], [-6.5777475, 5.7890889], [-6.577667, 5.7890595], [-6.5775731, 5.7890315], [-6.5774994, 5.7890168], [-6.5774672, 5.7889581], [-6.5774806, 5.7889088], [-6.577549, 5.788786], [-6.5775543, 5.7886793], [-6.5774994, 5.7886206], [-6.577431, 5.7886126], [-6.5773988, 5.7886099], [-6.5773612, 5.7886072], [-6.5773398, 5.7886152]]]}}, {"type": "Feature", "properties": {"osm_id": 616771254, "osm_type": "way", "landuse": "farmland"}, "geometry": {"type": "Polygon", "coordinates": [[[-6.575532, 5.7856812], [-6.5754206, 5.7858573], [-6.5755843, 5.7859547], [-6.5757103, 5.7857252], [-6.575532, 5.7856812]]]}}, {"type": "Feature", "properties": {"osm_id": 616771255, "osm_type": "way", "landuse": "farmland"}, "geometry": {"type": "Polygon", "coordinates": [[[-6.5756044, 5.7853249], [-6.5755266, 5.7855944], [-6.5754434, 5.7855718], [-6.5755078, 5.7853676], [-6.5754233, 5.7853476], [-6.5754381, 5.7852342], [-6.5756044, 5.7853249]]]}}, {"type": "Feature", "properties": {"osm_id": 616775084, "osm_type": "way", "landuse": "farmland"}, "geometry": {"type": "Polygon", "coordinates": [[[-6.5778869, 5.7869481], [-6.5778769, 5.7870068], [-6.5778501, 5.7870888], [-6.5777837, 5.7870748], [-6.5777166, 5.7870541], [-6.5776831, 5.7870455], [-6.5776838, 5.7869914], [-6.5777012, 5.7869314], [-6.5777079, 5.78689], [-6.5776905, 5.786846], [-6.577665, 5.7868233], [-6.577665, 5.7867726], [-6.577665, 5.7867379], [-6.5776844, 5.7866759], [-6.5776885, 5.7866538], [-6.5777072, 5.7866098], [-6.5776643, 5.7865671], [-6.5775919, 5.7865404], [-6.5775289, 5.7864911], [-6.5775289, 5.7864711], [-6.5775651, 5.7864671], [-6.5776174, 5.7864764], [-6.5776818, 5.7865044], [-6.5776965, 5.7864777], [-6.5777193, 5.7864257], [-6.5777461, 5.786343], [-6.5777971, 5.7863136], [-6.5778668, 5.7863149], [-6.5779768, 5.7862856], [-6.5781069, 5.7862656], [-6.5781364, 5.7862763], [-6.5781444, 5.7863643], [-6.5781364, 5.7864377], [-6.5781377, 5.7865231], [-6.5781431, 5.7866031], [-6.578072, 5.7867486], [-6.5780438, 5.786826], [-6.578009, 5.7868673], [-6.5779728, 5.7869087], [-6.5779138, 5.7869287], [-6.5778869, 5.7869481]]]}}, {"type": "Feature", "properties": {"osm_id": 616775089, "osm_type": "way", "landuse": "farmland"}, "geometry": {"type": "Polygon", "coordinates": [[[-6.5760382, 5.7876539], [-6.5760148, 5.7877106], [-6.5759893, 5.7877553], [-6.5759725, 5.7878047], [-6.5759618, 5.7878587], [-6.575945, 5.7878987], [-6.5759316, 5.7879474], [-6.5759088, 5.7879861], [-6.5758927, 5.7880208], [-6.5758719, 5.7880508], [-6.5758511, 5.7880869], [-6.5758367, 5.7880972], [-6.575825, 5.7881049], [-6.5758123, 5.7881049], [-6.5757874, 5.7881102], [-6.5757459, 5.7881102], [-6.5757144, 5.7881075], [-6.5756661, 5.7881082], [-6.5756332, 5.7881049], [-6.5755541, 5.7880969], [-6.5755286, 5.7880909], [-6.5754676, 5.7880722], [-6.5754139, 5.7880435], [-6.5753563, 5.7880015], [-6.5752825, 5.7879528], [-6.5752792, 5.7879021], [-6.5752845, 5.7878447], [-6.5753134, 5.7878207], [-6.575363, 5.787828], [-6.5754005, 5.7878607], [-6.5754341, 5.7878907], [-6.5754609, 5.7878654], [-6.5754448, 5.787828], [-6.5754126, 5.7878027], [-6.5753831, 5.787764], [-6.5754019, 5.7877279], [-6.5754448, 5.7876932], [-6.5754917, 5.7876892], [-6.5755306, 5.7876879], [-6.5755601, 5.7876679], [-6.5755561, 5.7876292], [-6.5755601, 5.7875305], [-6.5755507, 5.7874544], [-6.5755641, 5.7874397], [-6.5756004, 5.7874271], [-6.5758143, 5.7873944], [-6.575764, 5.7873223], [-6.5757144, 5.7872689], [-6.5757157, 5.7872236], [-6.575713, 5.7871489], [-6.5757398, 5.7871288], [-6.5757787, 5.7871595], [-6.5758042, 5.7871916], [-6.5758283, 5.7872236], [-6.5758216, 5.787273], [-6.5758324, 5.787301], [-6.5758538, 5.7873303], [-6.5758646, 5.7873463], [-6.5759383, 5.787377], [-6.5759772, 5.7873477], [-6.5760127, 5.7873397], [-6.5760396, 5.7873517], [-6.5760409, 5.787381], [-6.5760235, 5.7874611], [-6.5760201, 5.7875031], [-6.5760268, 5.7875565], [-6.5760382, 5.7876539]]]}}, {"type": "Feature", "properties": {"osm_id": 617030632, "osm_type": "way", "landuse": "farmland"}, "geometry": {"type": "Polygon", "coordinates": [[[-6.5808119, 5.7901243], [-6.5808159, 5.790231], [-6.5806067, 5.790235], [-6.5805262, 5.7902697], [-6.5805128, 5.7903364], [-6.5805115, 5.7903871], [-6.5805316, 5.7904325], [-6.5805745, 5.7904765], [-6.5806429, 5.7904912], [-6.580663, 5.7905085], [-6.5806644, 5.7905472], [-6.5806724, 5.7905793], [-6.5807395, 5.7905739], [-6.5807462, 5.7905246], [-6.5807757, 5.7904645], [-6.5808052, 5.7904245], [-6.5808414, 5.7904165], [-6.5808642, 5.7904098], [-6.5809634, 5.7904338], [-6.5810224, 5.7902804], [-6.5808789, 5.7902404], [-6.5809004, 5.7901216], [-6.5808119, 5.7901243]]]}}, {"type": "Feature", "properties": {"osm_id": 617118318, "osm_type": "way", "landuse": "farmland"}, "geometry": {"type": "Polygon", "coordinates": [[[-6.6040425, 5.7743624], [-6.604021, 5.7743597], [-6.6039661, 5.7743451], [-6.6039245, 5.774217], [-6.6039191, 5.7741663], [-6.6039017, 5.7741276], [-6.6038413, 5.7741182], [-6.6037206, 5.7741236], [-6.6036844, 5.7741262], [-6.6036254, 5.7743744], [-6.6037729, 5.7744185], [-6.6037703, 5.7745012], [-6.6036241, 5.7745039], [-6.603612, 5.7745772], [-6.6037796, 5.7746306], [-6.6037568, 5.7748001], [-6.6037019, 5.7748361], [-6.6037139, 5.7750229], [-6.6035289, 5.7750669], [-6.6034538, 5.7753605], [-6.6035932, 5.7754726], [-6.6037542, 5.7754579], [-6.6036415, 5.775634], [-6.6037515, 5.7757314], [-6.6038829, 5.7757381], [-6.6039272, 5.7758942], [-6.6039594, 5.7762224], [-6.6041069, 5.7763092], [-6.6041283, 5.7762625], [-6.6041592, 5.7762298], [-6.6041867, 5.7762017], [-6.6042282, 5.7761831], [-6.6042785, 5.7761771], [-6.6043168, 5.7761951], [-6.6043536, 5.7762471], [-6.604416, 5.7763272], [-6.6044515, 5.7762651], [-6.6045615, 5.776105], [-6.604591, 5.776065], [-6.6046299, 5.7759823], [-6.6046487, 5.7758488], [-6.6046514, 5.7757474], [-6.6046433, 5.7756674], [-6.6046339, 5.7755406], [-6.6046017, 5.7754392], [-6.6045991, 5.7753418], [-6.6046152, 5.7752924], [-6.6046286, 5.7752324], [-6.6046567, 5.7750843], [-6.6046755, 5.7750416], [-6.6046688, 5.7750176], [-6.6046245, 5.7749789], [-6.6046125, 5.7749202], [-6.6046232, 5.7748574], [-6.6046514, 5.7748027], [-6.6046648, 5.7747667], [-6.6046849, 5.774728], [-6.6047452, 5.7747173], [-6.6048311, 5.7747467], [-6.6049249, 5.7747627], [-6.6050255, 5.7747614], [-6.6051073, 5.774748], [-6.6051301, 5.77468], [-6.6051248, 5.7746346], [-6.6051288, 5.7745879], [-6.6051033, 5.7744825], [-6.6050604, 5.7743544], [-6.6050389, 5.7741916], [-6.6050738, 5.7741276], [-6.6051999, 5.7741062], [-6.6052884, 5.7741276], [-6.6053447, 5.7741169], [-6.605401, 5.7740929], [-6.6053903, 5.7740022], [-6.6053769, 5.7739381], [-6.605393, 5.7738687], [-6.6054252, 5.7738287], [-6.605444, 5.7737807], [-6.605452, 5.7737113], [-6.6054413, 5.7736259], [-6.6054252, 5.7735725], [-6.6053259, 5.7735352], [-6.6052911, 5.7735352], [-6.6051811, 5.7735965], [-6.6051462, 5.7736152], [-6.6050792, 5.7736739], [-6.6050389, 5.7737406], [-6.6049987, 5.773778], [-6.604937, 5.773778], [-6.6049451, 5.7736873], [-6.6049477, 5.7735805], [-6.6049504, 5.7735058], [-6.6049612, 5.7734257], [-6.6049236, 5.7733483], [-6.6049236, 5.7732042], [-6.6047949, 5.7732096], [-6.6047198, 5.7732389], [-6.6046473, 5.7732923], [-6.6046393, 5.7733377], [-6.6046393, 5.7734017], [-6.604642, 5.7735138], [-6.6046393, 5.7736152], [-6.6046366, 5.7736926], [-6.6046312, 5.773762], [-6.6045964, 5.773834], [-6.6045159, 5.7738687], [-6.6044368, 5.7738701], [-6.6043872, 5.7738581], [-6.6045025, 5.7745145], [-6.6042718, 5.7744665], [-6.6042665, 5.7743664], [-6.604123, 5.7743624], [-6.604064, 5.7743611], [-6.6040425, 5.7743624]]]}}]}